0 STARLINK-1008
1 44714U 19074B   24316.69948730 -.00008762  00000-0 -57027-3 0  9992
2 44714  53.0534 194.8485 0001019  80.3251 279.7853 15.06386258276124